[{"OBJECT_NAME":"QIANFAN-45","OBJECT_ID":"2024-232K","EPOCH":"2026-03-09T21:15:38.536416","MEAN_MOTION":13.51007368,"ECCENTRICITY":0.00128201,"INCLINATION":89.0071,"RA_OF_ASC_NODE":32.4286,"ARG_OF_PERICENTER":307.8822,"MEAN_ANOMALY":52.1169,"EPHEMERIS_TYPE":0,"CLASSIFICATION_TYPE":"U","NORAD_CAT_ID":62246,"ELEMENT_SET_NO":999,"REV_AT_EPOCH":11102,"BSTAR":0.00029429533,"MEAN_MOTION_DOT":2.02e-6,"MEAN_MOTION_DDOT":0},{"OBJECT_NAME":"THORAD AGENA D DEB","OBJECT_ID":"1970-025AV","EPOCH":"2026-03-06T12:28:07.398048","MEAN_MOTION":13.5539117,"ECCENTRICITY":0.00378155,"INCLINATION":99.3932,"RA_OF_ASC_NODE":269.9581,"ARG_OF_PERICENTER":316.3148,"MEAN_ANOMALY":72.8843,"EPHEMERIS_TYPE":0,"CLASSIFICATION_TYPE":"U","NORAD_CAT_ID":4672,"ELEMENT_SET_NO":999,"REV_AT_EPOCH":75595,"BSTAR":0.0005281804,"MEAN_MOTION_DOT":3.26e-6,"MEAN_MOTION_DDOT":0}]
